STARLINK-31211          
1 59031U 24038J   26068.24717880 -.00000834  00000+0 -20818-4 0  9993
2 59031  42.9996  29.2471 0000681 253.7027 106.3750 15.27571669114585
PHISAT 2                
1 60470U 24149C   26068.78834181  .00008925  00000+0  31421-3 0  9996
2 60470  97.3806 148.6498 0001175 168.6230 191.5037 15.29548631 86792
